[{"OBJECT_NAME":"NAPA-2","OBJECT_ID":"2021-059CN","EPOCH":"2026-03-09T23:29:49.102656","MEAN_MOTION":15.70952391,"ECCENTRICITY":0.00036606,"INCLINATION":97.6849,"RA_OF_ASC_NODE":256.4978,"ARG_OF_PERICENTER":316.466,"MEAN_ANOMALY":43.6312,"EPHEMERIS_TYPE":0,"CLASSIFICATION_TYPE":"U","NORAD_CAT_ID":48963,"ELEMENT_SET_NO":999,"REV_AT_EPOCH":26212,"BSTAR":0.00074486022,"MEAN_MOTION_DOT":0.00093758,"MEAN_MOTION_DDOT":0},{"OBJECT_NAME":"STARLINK-11523 [DTC]","OBJECT_ID":"2025-006M","EPOCH":"2026-03-09T06:27:50.453280","MEAN_MOTION":15.70860582,"ECCENTRICITY":0.00045415,"INCLINATION":42.9998,"RA_OF_ASC_NODE":142.663,"ARG_OF_PERICENTER":295.5581,"MEAN_ANOMALY":64.4817,"EPHEMERIS_TYPE":0,"CLASSIFICATION_TYPE":"U","NORAD_CAT_ID":62565,"ELEMENT_SET_NO":999,"REV_AT_EPOCH":6653,"BSTAR":0.0015233907,"MEAN_MOTION_DOT":0.00200038,"MEAN_MOTION_DDOT":0}]
